QIANFAN-81              
1 63167U 25046J   25220.87620653  .00000153  00000+0  21820-3 0  9992
2 63167  88.9863 332.8441 0016634 122.9054 237.3700 13.50962080 30497
QIANFAN-82              
1 63168U 25046K   25220.90899491  .00000143  00000+0  20334-3 0  9993
2 63168  88.9863 332.8842 0014693 129.5331 230.7121 13.50958901 30487
QIANFAN-83              
1 63169U 25046L   25220.84845122  .00000186  00000+0  22499-3 0  9990
2 63169  88.9863 332.9132 0016070 122.8094 237.4614 13.61933390 30460
QIANFAN-84              
1 63170U 25046M   25220.86376624  .00000163  00000+0  23345-3 0  9996
2 63170  88.9863 333.0219 0017700 126.8768 233.4008 13.50965948 30402
QIANFAN-85              
1 63171U 25046N   25220.85973438  .00000151  00000+0  21570-3 0  9997
2 63171  88.9862 332.8946 0015054 128.7620 231.4879 13.50959903 30479
QIANFAN-86              
1 63172U 25046P   25220.86796021  .00000158  00000+0  22589-3 0  9998
2 63172  88.9865 332.7529 0012885 131.9967 228.2283 13.50960330 30556
QIANFAN-87              
1 63173U 25046Q   25220.91312255  .00000004  00000+0 -13333-4 0  9997
2 63173  88.9861 332.8647 0013653 127.6825 232.5566 13.50957418 30492
QIANFAN-88              
1 63174U 25046R   25220.85568731  .00000153  00000+0  21774-3 0  9994
2 63174  88.9863 332.8221 0013926 134.8967 225.3317 13.50964412 30512
